[{"OBJECT_NAME":"OBJECT K","OBJECT_ID":"2024-092K","EPOCH":"2026-03-09T22:27:09.905184","MEAN_MOTION":15.32834875,"ECCENTRICITY":0.00087198,"INCLINATION":97.6413,"RA_OF_ASC_NODE":198.1023,"ARG_OF_PERICENTER":142.4952,"MEAN_ANOMALY":217.69,"EPHEMERIS_TYPE":0,"CLASSIFICATION_TYPE":"U","NORAD_CAT_ID":59809,"ELEMENT_SET_NO":999,"REV_AT_EPOCH":10001,"BSTAR":0.0007267688,"MEAN_MOTION_DOT":0.00023035,"MEAN_MOTION_DDOT":0},{"OBJECT_NAME":"STARLINK-32044","OBJECT_ID":"2024-117B","EPOCH":"2026-03-09T21:43:07.324032","MEAN_MOTION":15.30182552,"ECCENTRICITY":0.00013145,"INCLINATION":53.161,"RA_OF_ASC_NODE":35.8222,"ARG_OF_PERICENTER":92.3594,"MEAN_ANOMALY":267.7557,"EPHEMERIS_TYPE":0,"CLASSIFICATION_TYPE":"U","NORAD_CAT_ID":60092,"ELEMENT_SET_NO":999,"REV_AT_EPOCH":9692,"BSTAR":5.3005892e-5,"MEAN_MOTION_DOT":1.21e-5,"MEAN_MOTION_DDOT":0}]
